[{"OBJECT_NAME":"STARLINK-1559","OBJECT_ID":"2020-055BC","EPOCH":"2026-03-09T05:36:23.522976","MEAN_MOTION":15.29461733,"ECCENTRICITY":0.0004229,"INCLINATION":53.0254,"RA_OF_ASC_NODE":76.0659,"ARG_OF_PERICENTER":33.971,"MEAN_ANOMALY":326.1559,"EPHEMERIS_TYPE":0,"CLASSIFICATION_TYPE":"U","NORAD_CAT_ID":46077,"ELEMENT_SET_NO":999,"REV_AT_EPOCH":30951,"BSTAR":0.0014778793,"MEAN_MOTION_DOT":0.00042685,"MEAN_MOTION_DDOT":0},{"OBJECT_NAME":"STARLINK-34054","OBJECT_ID":"2025-111U","EPOCH":"2026-03-09T10:10:50.104128","MEAN_MOTION":15.27592397,"ECCENTRICITY":0.00014423,"INCLINATION":43.0041,"RA_OF_ASC_NODE":79.2911,"ARG_OF_PERICENTER":268.6319,"MEAN_ANOMALY":91.4367,"EPHEMERIS_TYPE":0,"CLASSIFICATION_TYPE":"U","NORAD_CAT_ID":64141,"ELEMENT_SET_NO":999,"REV_AT_EPOCH":4542,"BSTAR":0.00073504981,"MEAN_MOTION_DOT":0.00020027,"MEAN_MOTION_DDOT":0}]
